[{"OBJECT_NAME":"JILIN-1 09","OBJECT_ID":"2019-005B","EPOCH":"2026-03-09T21:49:20.163360","MEAN_MOTION":15.19514186,"ECCENTRICITY":0.00037399,"INCLINATION":97.4701,"RA_OF_ASC_NODE":164.8178,"ARG_OF_PERICENTER":87.3947,"MEAN_ANOMALY":272.7716,"EPHEMERIS_TYPE":0,"CLASSIFICATION_TYPE":"U","NORAD_CAT_ID":43943,"ELEMENT_SET_NO":999,"REV_AT_EPOCH":39406,"BSTAR":0.00030815291,"MEAN_MOTION_DOT":6.478e-5,"MEAN_MOTION_DDOT":0},{"OBJECT_NAME":"COSMOS 1536","OBJECT_ID":"1984-013A","EPOCH":"2026-03-09T12:33:00.332064","MEAN_MOTION":15.23821576,"ECCENTRICITY":0.00124739,"INCLINATION":82.5428,"RA_OF_ASC_NODE":108.0163,"ARG_OF_PERICENTER":284.1309,"MEAN_ANOMALY":75.8542,"EPHEMERIS_TYPE":0,"CLASSIFICATION_TYPE":"U","NORAD_CAT_ID":14699,"ELEMENT_SET_NO":999,"REV_AT_EPOCH":27259,"BSTAR":0.00029910457,"MEAN_MOTION_DOT":7.251e-5,"MEAN_MOTION_DDOT":0}]
